$$SOE
2460154.500000000, A.D. 2023-Jul-29 00:00:00.0000, 3.032741953188086E+08, -4.480563874053383E+07, -2.201580149040336E+08,
2460161.500000000, A.D. 2023-Aug-05 00:00:00.0000, 3.049888028849763E+08, -3.512696069788010E+07, -2.243908453070188E+08,
2460168.500000000, A.D. 2023-Aug-12 00:00:00.0000, 3.064341615679737E+08, -2.541716932193422E+07, -2.284255343365748E+08,
2460175.500000000, A.D. 2023-Aug-19 00:00:00.0000, 3.076148422812166E+08, -1.568532445873819E+07, -2.322628772438080E+08,
2460182.500000000, A.D. 2023-Aug-26 00:00:00.0000, 3.085354078160893E+08, -5.940119556176424E+06, -2.359037732274998E+08,
2460189.500000000, A.D. 2023-Sep-02 00:00:00.0000, 3.092004051470369E+08, 3.810099227063194E+06, -2.393492137724037E+08,
2460196.500000000, A.D. 2023-Sep-09 00:00:00.0000, 3.096143588998066E+08, 1.355731456398056E+07, -2.426002721159317E+08,
2460203.500000000, A.D. 2023-Sep-16 00:00:00.0000, 3.097817660258940E+08, 2.329382009704903E+07, -2.456580937654553E+08,
2460210.500000000, A.D. 2023-Sep-23 00:00:00.0000, 3.097070919866754E+08, 3.301220345334981E+07, -2.485238879897837E+08,
2460217.500000000, A.D. 2023-Sep-30 00:00:00.0000, 3.093947680064274E+08, 4.270533131946446E+07, -2.511989200731508E+08,
2460224.500000000, A.D. 2023-Oct-07 00:00:00.0000, 3.088491869513168E+08, 5.236633602077053E+07, -2.536845040884960E+08,
2460231.500000000, A.D. 2023-Oct-14 00:00:00.0000, 3.080746987949243E+08, 6.198860027147220E+07, -2.559819964924466E+08,
2460238.500000000, A.D. 2023-Oct-21 00:00:00.0000, 3.070756088263376E+08, 7.156574167340975E+07, -2.580927906449314E+08,
2460245.500000000, A.D. 2023-Oct-28 00:00:00.0000, 3.058561771114591E+08, 8.109159919910690E+07, -2.600183118802477E+08,
2460252.500000000, A.D. 2023-Nov-04 00:00:00.0000, 3.044206179002388E+08, 9.056022086289662E+07, -2.617600130262061E+08,
2460259.500000000, A.D. 2023-Nov-11 00:00:00.0000, 3.027730991065717E+08, 9.996585195328902E+07, -2.633193703895394E+08,
2460266.500000000, A.D. 2023-Nov-18 00:00:00.0000, 3.009177420351089E+08, 1.093029237349794E+08, -2.646978801897428E+08,
2460273.500000000, A.D. 2023-Nov-25 00:00:00.0000, 2.988586213876532E+08, 1.185660426159042E+08, -2.658970554068072E+08,
2460280.500000000, A.D. 2023-Dec-02 00:00:00.0000, 2.965997655417897E+08, 1.277499797413717E+08, -2.669184230106960E+08,
2460287.500000000, A.D. 2023-Dec-09 00:00:00.0000, 2.941451571482698E+08, 1.368496609300383E+08, -2.677635215524669E+08,
2460294.500000000, A.D. 2023-Dec-16 00:00:00.0000, 2.914987343072482E+08, 1.458601569382184E+08, -2.684338991135054E+08,
2460301.500000000, A.D. 2023-Dec-23 00:00:00.0000, 2.886643926475207E+08, 1.547766747141084E+08, -2.689311115616228E+08,
2460308.500000000, A.D. 2023-Dec-30 00:00:00.0000, 2.856459869463931E+08, 1.635945506673190E+08, -2.692567208797737E+08,
2460315.500000000, A.D. 2024-Jan-06 00:00:00.0000, 2.824473304985768E+08, 1.723092435718098E+08, -2.694122935772293E+08,
2460322.500000000, A.D. 2024-Jan-13 00:00:00.0000, 2.790721953915838E+08, 1.809163252728045E+08, -2.693993996052166E+08,
2460329.500000000, A.D. 2024-Jan-20 00:00:00.0000, 2.755243148973095E+08, 1.894114722594628E+08, -2.692196116193002E+08,
2460336.500000000, A.D. 2024-Jan-27 00:00:00.0000, 2.718073859382542E+08, 1.977904587352534E+08, -2.688745043325066E+08,
2460343.500000000, A.D. 2024-Feb-03 00:00:00.0000, 2.679250711892371E+08, 2.060491502185714E+08, -2.683656539836305E+08,
2460350.500000000, A.D. 2024-Feb-10 00:00:00.0000, 2.638810010829603E+08, 2.141834973643310E+08, -2.676946379579284E+08,
2460357.500000000, A.D. 2024-Feb-17 00:00:00.0000, 2.596787758505235E+08, 2.221895299971362E+08, -2.668630345614871E+08,
2460364.500000000, A.D. 2024-Feb-24 00:00:00.0000, 2.553219676264423E+08, 2.300633513544433E+08, -2.658724229417351E+08,
2460371.500000000, A.D. 2024-Mar-02 00:00:00.0000, 2.508141226422637E+08, 2.378011324918056E+08, -2.647243831509989E+08,
2460378.500000000, A.D. 2024-Mar-09 00:00:00.0000, 2.461587636433951E+08, 2.453991067729264E+08, -2.634204963637727E+08,
2460385.500000000, A.D. 2024-Mar-16 00:00:00.0000, 2.413593929215187E+08, 2.528535646280109E+08, -2.619623452618582E+08,
2460392.500000000, A.D. 2024-Mar-23 00:00:00.0000, 2.364194958570893E+08, 2.601608496757710E+08, -2.603515144813257E+08,
2460399.500000000, A.D. 2024-Mar-30 00:00:00.0000, 2.313425427284178E+08, 2.673173561699090E+08, -2.585895909113083E+08,
2460406.500000000, A.D. 2024-Apr-06 00:00:00.0000, 2.261319890413154E+08, 2.743195243929592E+08, -2.566781641398858E+08,
2460413.500000000, A.D. 2024-Apr-13 00:00:00.0000, 2.207912779312053E+08, 2.811638348239022E+08, -2.546188273036094E+08,
2460420.500000000, A.D. 2024-Apr-20 00:00:00.0000, 2.153238436867417E+08, 2.878468037454543E+08, -2.524131780318245E+08,
2460427.500000000, A.D. 2024-Apr-27 00:00:00.0000, 2.097331148786337E+08, 2.943649797205393E+08, -2.500628193899270E+08,
2460434.500000000, A.D. 2024-May-04 00:00:00.0000, 2.040225171830742E+08, 3.007149402266266E+08, -2.475693608859901E+08,
2460441.500000000, A.D. 2024-May-11 00:00:00.0000, 1.981954761405371E+08, 3.068932883387760E+08, -2.449344195705214E+08,
2460448.500000000, A.D. 2024-May-18 00:00:00.0000, 1.922554199350060E+08, 3.128966494761428E+08, -2.421596212348278E+08,
2460455.500000000, A.D. 2024-May-25 00:00:00.0000, 1.862057822217818E+08, 3.187216681985155E+08, -2.392466017104882E+08,
2460462.500000000, A.D. 2024-Jun-01 00:00:00.0000, 1.800500050671071E+08, 3.243650049899217E+08, -2.361970082797678E+08,
2460469.500000000, A.D. 2024-Jun-08 00:00:00.0000, 1.737915422491180E+08, 3.298233330019240E+08, -2.330125012217212E+08,
2460476.500000000, A.D. 2024-Jun-15 00:00:00.0000, 1.674338633230908E+08, 3.350933352983866E+08, -2.296947554878371E+08,
2460483.500000000, A.D. 2024-Jun-22 00:00:00.0000, 1.609804574501929E+08, 3.401717037736115E+08, -2.262454623214628E+08,
2460490.500000000, A.D. 2024-Jun-29 00:00:00.0000, 1.544348348718957E+08, 3.450551379202670E+08, -2.226663307771884E+08,
2460497.500000000, A.D. 2024-Jul-06 00:00:00.0000, 1.478005286790276E+08, 3.497403409761064E+08, -2.189590895899836E+08,
2460504.500000000, A.D. 2024-Jul-13 00:00:00.0000, 1.410810988324091E+08, 3.542240162736409E+08, -2.151254893493232E+08,
2460511.500000000, A.D. 2024-Jul-20 00:00:00.0000, 1.342801364575418E+08, 3.585028649402018E+08, -2.111673047069561E+08,
2460518.500000000, A.D. 2024-Jul-27 00:00:00.0000, 1.274012677643886E+08, 3.625735839888165E+08, -2.070863366408974E+08,
2460525.500000000, A.D. 2024-Aug-03 00:00:00.0000, 1.204481578723181E+08, 3.664328644262432E+08, -2.028844148367316E+08,
2460532.500000000, A.D. 2024-Aug-10 00:00:00.0000, 1.134245147135278E+08, 3.700773893761107E+08, -1.985634002080356E+08,
2460539.500000000, A.D. 2024-Aug-17 00:00:00.0000, 1.063340930701820E+08, 3.735038322423607E+08, -1.941251875654154E+08,
2460546.500000000, A.D. 2024-Aug-24 00:00:00.0000, 9.918069878136270E+07, 3.767088548953378E+08, -1.895717084461695E+08,
2460553.500000000, A.D. 2024-Aug-31 00:00:00.0000, 9.196819324404356E+07, 3.796891058248622E+08, -1.849049341286012E+08,
2460560.500000000, A.D. 2024-Sep-07 00:00:00.0000, 8.470049858254229E+07, 3.824412183939828E+08, -1.801268788635781E+08,
2460567.500000000, A.D. 2024-Sep-14 00:00:00.0000, 7.738160358168668E+07, 3.849618101982850E+08, -1.752396032604987E+08,
2460574.500000000, A.D. 2024-Sep-21 00:00:00.0000, 7.001556836647280E+07, 3.872474839523844E+08, -1.702452176183799E+08,
2460581.500000000, A.D. 2024-Sep-28 00:00:00.0000, 6.260652735055669E+07, 3.892948266850376E+08, -1.651458854301746E+08,
2460588.500000000, A.D. 2024-Oct-05 00:00:00.0000, 5.515869413189266E+07, 3.911004072586286E+08, -1.599438274094707E+08,
2460595.500000000, A.D. 2024-Oct-12 00:00:00.0000, 4.767636798736183E+07, 3.926607752096481E+08, -1.546413257780240E+08,
2460602.500000000, A.D. 2024-Oct-19 00:00:00.0000, 4.016394022840244E+07, 3.939724606554787E+08, -1.492407286891310E+08,
2460609.500000000, A.D. 2024-Oct-26 00:00:00.0000, 3.262590039716773E+07, 3.950319744845681E+08, -1.437444548634540E+08,
2460616.500000000, A.D. 2024-Nov-02 00:00:00.0000, 2.506684257269592E+07, 3.958358087032250E+08, -1.381549984886574E+08,
2460623.500000000, A.D. 2024-Nov-09 00:00:00.0000, 1.749147189629491E+07, 3.963804369843062E+08, -1.324749344068547E+08,
2460630.500000000, A.D. 2024-Nov-16 00:00:00.0000, 9.904611354914090E+06, 3.966623154456869E+08, -1.267069236101020E+08,
2460637.500000000, A.D. 2024-Nov-23 00:00:00.0000, 2.311208882390497E+06, 3.966778836395661E+08, -1.208537190712370E+08,
2460644.500000000, A.D. 2024-Nov-30 00:00:00.0000, -5.283655000310694E+06, 3.964235657446275E+08, -1.149181719526229E+08,
2460651.500000000, A.D. 2024-Dec-07 00:00:00.0000, -1.287475857393132E+07, 3.958957724208645E+08, -1.089032382181421E+08,
2460658.500000000, A.D. 2024-Dec-14 00:00:00.0000, -2.045673001442416E+07, 3.950909045956808E+08, -1.028119855080826E+08,
2460665.500000000, A.D. 2024-Dec-21 00:00:00.0000, -2.802404049486163E+07, 3.940053579876456E+08, -9.664760018803540E+07,
2460672.500000000, A.D. 2024-Dec-28 00:00:00.0000, -3.557099731222423E+07, 3.926355254488091E+08, -9.041339501597537E+07,
2460679.500000000, A.D. 2025-Jan-04 00:00:00.0000, -4.309173443533864E+07, 3.909777995604372E+08, -8.411281749613991E+07,
2460686.500000000, A.D. 2025-Jan-11 00:00:00.0000, -5.058020228674517E+07, 3.890285772087067E+08, -7.774945864371991E+07,
2460693.500000000, A.D. 2025-Jan-18 00:00:00.0000, -5.803015766891064E+07, 3.867842652922363E+08, -7.132706217722186E+07,
2460700.500000000, A.D. 2025-Jan-25 00:00:00.0000, -6.543515358831904E+07, 3.842412871658664E+08, -6.484953422644281E+07,
2460707.500000000, A.D. 2025-Feb-01 00:00:00.0000, -7.278852878680629E+07, 3.813960898786970E+08, -5.832095360329117E+07,
2460714.500000000, A.D. 2025-Feb-08 00:00:00.0000, -8.008339692320295E+07, 3.782451523219477E+08, -5.174558266579133E+07,
2460721.500000000, A.D. 2025-Feb-15 00:00:00.0000, -8.731263538364001E+07, 3.747849943703776E+08, -4.512787880502845E+07,
$$EOE